IRIDIUM 109             
1 41919U 17003C   25017.49979405  .00000146  00000+0  45026-4 0  9998
2 41919  86.3984 303.9750 0002050  79.0501 281.0926 14.34218456419280
IRIDIUM 102             
1 41920U 17003D   25017.25877597  .00000206  00000+0  66452-4 0  9996
2 41920  86.3981 304.0106 0002230  83.3878 276.7572 14.34213645419330
IRIDIUM 105             
1 41921U 17003E   25017.22951164  .00000533  00000+0  18308-3 0  9996
2 41921  86.3959 272.4432 0001993  87.0508 273.0916 14.34221941421188
IRIDIUM 104             
1 41922U 17003F   25017.27145749 -.00000256  00000+0 -98351-4 0  9997
2 41922  86.3981 304.0396 0001705  70.0344 290.1035 14.34215837419328
IRIDIUM 108             
1 41924U 17003H   25017.23632499  .00000093  00000+0  25983-4 0  9996
2 41924  86.3955 272.3514 0002202  90.4307 269.7141 14.34218069421152
